CCSDS_OMM_VERS = 2.0
CREATION_DATE  = 
ORIGINATOR     = 

OBJECT_NAME    = COSMOS 2058
OBJECT_ID      = 1990-010A
CENTER_NAME    = EARTH
REF_FRAME      = TEME
TIME_SYSTEM    = UTC
MEAN_ELEMENT_THEORY = SGP/SGP4

EPOCH          = 2026-04-05T20:35:14.987904
MEAN_MOTION    = 15.11601978
ECCENTRICITY   = .0008212
INCLINATION    = 82.4729
RA_OF_ASC_NODE = 20.6603
ARG_OF_PERICENTER = 233.4905
MEAN_ANOMALY   = 126.5570

EPHEMERIS_TYPE = 0
CLASSIFICATION_TYPE = U
NORAD_CAT_ID   = 20465
ELEMENT_SET_NO = 999
REV_AT_EPOCH   = 94634
BSTAR          = .31872E-3
MEAN_MOTION_DOT = .5442E-4
MEAN_MOTION_DDOT = 0

CCSDS_OMM_VERS = 2.0
CREATION_DATE  = 
ORIGINATOR     = 

OBJECT_NAME    = SL-14 R/B
OBJECT_ID      = 1990-010B
CENTER_NAME    = EARTH
REF_FRAME      = TEME
TIME_SYSTEM    = UTC
MEAN_ELEMENT_THEORY = SGP/SGP4

EPOCH          = 2026-04-05T20:49:27.362784
MEAN_MOTION    = 14.83597812
ECCENTRICITY   = .0019145
INCLINATION    = 82.5009
RA_OF_ASC_NODE = 241.8534
ARG_OF_PERICENTER = 206.5314
MEAN_ANOMALY   = 153.4923

EPHEMERIS_TYPE = 0
CLASSIFICATION_TYPE = U
NORAD_CAT_ID   = 20466
ELEMENT_SET_NO = 999
REV_AT_EPOCH   = 93251
BSTAR          = .81305E-4
MEAN_MOTION_DOT = .696E-5
MEAN_MOTION_DDOT = 0

CCSDS_OMM_VERS = 2.0
CREATION_DATE  = 
ORIGINATOR     = 

OBJECT_NAME    = SL-14 R/B
OBJECT_ID      = 1990-018B
CENTER_NAME    = EARTH
REF_FRAME      = TEME
TIME_SYSTEM    = UTC
MEAN_ELEMENT_THEORY = SGP/SGP4

EPOCH          = 2026-04-05T17:00:59.600160
MEAN_MOTION    = 14.82173741
ECCENTRICITY   = .0016309
INCLINATION    = 82.5244
RA_OF_ASC_NODE = 197.8419
ARG_OF_PERICENTER = 8.3149
MEAN_ANOMALY   = 351.8332

EPHEMERIS_TYPE = 0
CLASSIFICATION_TYPE = U
NORAD_CAT_ID   = 20511
ELEMENT_SET_NO = 999
REV_AT_EPOCH   = 92658
BSTAR          = .76594E-4
MEAN_MOTION_DOT = .635E-5
MEAN_MOTION_DDOT = 0

CCSDS_OMM_VERS = 2.0
CREATION_DATE  = 
ORIGINATOR     = 

OBJECT_NAME    = HST
OBJECT_ID      = 1990-037B
CENTER_NAME    = EARTH
REF_FRAME      = TEME
TIME_SYSTEM    = UTC
MEAN_ELEMENT_THEORY = SGP/SGP4

EPOCH          = 2026-04-05T15:01:46.095744
MEAN_MOTION    = 15.29942321
ECCENTRICITY   = .0002248
INCLINATION    = 28.4724
RA_OF_ASC_NODE = 216.1877
ARG_OF_PERICENTER = 70.2835
MEAN_ANOMALY   = 289.8004

EPHEMERIS_TYPE = 0
CLASSIFICATION_TYPE = U
NORAD_CAT_ID   = 20580
ELEMENT_SET_NO = 999
REV_AT_EPOCH   = 77744
BSTAR          = .30389E-3
MEAN_MOTION_DOT = .9304E-4
MEAN_MOTION_DDOT = 0

CCSDS_OMM_VERS = 2.0
CREATION_DATE  = 
ORIGINATOR     = 

OBJECT_NAME    = SL-16 R/B
OBJECT_ID      = 1990-046B
CENTER_NAME    = EARTH
REF_FRAME      = TEME
TIME_SYSTEM    = UTC
MEAN_ELEMENT_THEORY = SGP/SGP4

EPOCH          = 2026-04-05T20:13:39.702432
MEAN_MOTION    = 14.15019412
ECCENTRICITY   = .0016594
INCLINATION    = 70.9989
RA_OF_ASC_NODE = 240.8822
ARG_OF_PERICENTER = 264.4304
MEAN_ANOMALY   = 95.4926

EPHEMERIS_TYPE = 0
CLASSIFICATION_TYPE = U
NORAD_CAT_ID   = 20625
ELEMENT_SET_NO = 999
REV_AT_EPOCH   = 85223
BSTAR          = .13465E-4
MEAN_MOTION_DOT = -.22E-6
MEAN_MOTION_DDOT = 0

CCSDS_OMM_VERS = 2.0
CREATION_DATE  = 
ORIGINATOR     = 

OBJECT_NAME    = COSMOS 2084
OBJECT_ID      = 1990-055A
CENTER_NAME    = EARTH
REF_FRAME      = TEME
TIME_SYSTEM    = UTC
MEAN_ELEMENT_THEORY = SGP/SGP4

EPOCH          = 2026-04-05T19:37:26.382144
MEAN_MOTION    = 15.05824535
ECCENTRICITY   = .0012712
INCLINATION    = 62.7899
RA_OF_ASC_NODE = 243.0394
ARG_OF_PERICENTER = 199.4233
MEAN_ANOMALY   = 160.6385

EPHEMERIS_TYPE = 0
CLASSIFICATION_TYPE = U
NORAD_CAT_ID   = 20663
ELEMENT_SET_NO = 999
REV_AT_EPOCH   = 94040
BSTAR          = .2728E-3
MEAN_MOTION_DOT = .3783E-4
MEAN_MOTION_DDOT = 0

CCSDS_OMM_VERS = 2.0
CREATION_DATE  = 
ORIGINATOR     = 

OBJECT_NAME    = SL-6 R/B(2)
OBJECT_ID      = 1990-055D
CENTER_NAME    = EARTH
REF_FRAME      = TEME
TIME_SYSTEM    = UTC
MEAN_ELEMENT_THEORY = SGP/SGP4

EPOCH          = 2026-04-05T12:07:20.900064
MEAN_MOTION    = 15.03732466
ECCENTRICITY   = .00292012
INCLINATION    = 62.7826
RA_OF_ASC_NODE = 162.6522
ARG_OF_PERICENTER = 352.9885
MEAN_ANOMALY   = 7.0802

EPHEMERIS_TYPE = 0
CLASSIFICATION_TYPE = U
NORAD_CAT_ID   = 20666
ELEMENT_SET_NO = 999
REV_AT_EPOCH   = 94222
BSTAR          = .20501111E-3
MEAN_MOTION_DOT = .2649E-4
MEAN_MOTION_DDOT = 0

CCSDS_OMM_VERS = 2.0
CREATION_DATE  = 
ORIGINATOR     = 

OBJECT_NAME    = SL-8 R/B
OBJECT_ID      = 1990-078B
CENTER_NAME    = EARTH
REF_FRAME      = TEME
TIME_SYSTEM    = UTC
MEAN_ELEMENT_THEORY = SGP/SGP4

EPOCH          = 2026-04-05T17:10:11.791200
MEAN_MOTION    = 14.89873570
ECCENTRICITY   = .0357348
INCLINATION    = 82.9045
RA_OF_ASC_NODE = 226.9868
ARG_OF_PERICENTER = 282.7694
MEAN_ANOMALY   = 73.3819

EPHEMERIS_TYPE = 0
CLASSIFICATION_TYPE = U
NORAD_CAT_ID   = 20775
ELEMENT_SET_NO = 999
REV_AT_EPOCH   = 81332
BSTAR          = .41366E-3
MEAN_MOTION_DOT = .13975E-3
MEAN_MOTION_DDOT = 0

CCSDS_OMM_VERS = 2.0
CREATION_DATE  = 
ORIGINATOR     = 

OBJECT_NAME    = SL-8 R/B
OBJECT_ID      = 1991-006B
CENTER_NAME    = EARTH
REF_FRAME      = TEME
TIME_SYSTEM    = UTC
MEAN_ELEMENT_THEORY = SGP/SGP4

EPOCH          = 2026-04-05T21:16:02.978112
MEAN_MOTION    = 13.77499070
ECCENTRICITY   = .0021366
INCLINATION    = 82.9432
RA_OF_ASC_NODE = 149.8249
ARG_OF_PERICENTER = 321.9274
MEAN_ANOMALY   = 213.7799

EPHEMERIS_TYPE = 0
CLASSIFICATION_TYPE = U
NORAD_CAT_ID   = 21088
ELEMENT_SET_NO = 999
REV_AT_EPOCH   = 76781
BSTAR          = .11209E-3
MEAN_MOTION_DOT = .127E-5
MEAN_MOTION_DDOT = 0

CCSDS_OMM_VERS = 2.0
CREATION_DATE  = 
ORIGINATOR     = 

OBJECT_NAME    = OKEAN-3
OBJECT_ID      = 1991-039A
CENTER_NAME    = EARTH
REF_FRAME      = TEME
TIME_SYSTEM    = UTC
MEAN_ELEMENT_THEORY = SGP/SGP4

EPOCH          = 2026-04-05T20:58:50.281248
MEAN_MOTION    = 15.04978735
ECCENTRICITY   = .0013002
INCLINATION    = 82.5152
RA_OF_ASC_NODE = 310.5008
ARG_OF_PERICENTER = 236.2399
MEAN_ANOMALY   = 123.7589

EPHEMERIS_TYPE = 0
CLASSIFICATION_TYPE = U
NORAD_CAT_ID   = 21397
ELEMENT_SET_NO = 999
REV_AT_EPOCH   = 86912
BSTAR          = .2727E-3
MEAN_MOTION_DOT = .39E-4
MEAN_MOTION_DDOT = 0

CCSDS_OMM_VERS = 2.0
CREATION_DATE  = 
ORIGINATOR     = 

OBJECT_NAME    = COSMOS 2151
OBJECT_ID      = 1991-042A
CENTER_NAME    = EARTH
REF_FRAME      = TEME
TIME_SYSTEM    = UTC
MEAN_ELEMENT_THEORY = SGP/SGP4

EPOCH          = 2026-04-05T19:56:11.850144
MEAN_MOTION    = 15.00235690
ECCENTRICITY   = .0011618
INCLINATION    = 82.4965
RA_OF_ASC_NODE = 57.4881
ARG_OF_PERICENTER = 335.8870
MEAN_ANOMALY   = 24.1809

EPHEMERIS_TYPE = 0
CLASSIFICATION_TYPE = U
NORAD_CAT_ID   = 21422
ELEMENT_SET_NO = 999
REV_AT_EPOCH   = 86726
BSTAR          = .27531E-3
MEAN_MOTION_DOT = .3474E-4
MEAN_MOTION_DDOT = 0

CCSDS_OMM_VERS = 2.0
CREATION_DATE  = 
ORIGINATOR     = 

OBJECT_NAME    = SL-14 R/B
OBJECT_ID      = 1991-042B
CENTER_NAME    = EARTH
REF_FRAME      = TEME
TIME_SYSTEM    = UTC
MEAN_ELEMENT_THEORY = SGP/SGP4

EPOCH          = 2026-04-05T18:25:40.714176
MEAN_MOTION    = 14.81859146
ECCENTRICITY   = .0017855
INCLINATION    = 82.4961
RA_OF_ASC_NODE = 194.7975
ARG_OF_PERICENTER = 148.1133
MEAN_ANOMALY   = 212.1166

EPHEMERIS_TYPE = 0
CLASSIFICATION_TYPE = U
NORAD_CAT_ID   = 21423
ELEMENT_SET_NO = 999
REV_AT_EPOCH   = 85708
BSTAR          = .78883E-4
MEAN_MOTION_DOT = .649E-5
MEAN_MOTION_DDOT = 0

